{
"type": "FeatureCollection",
"name": "juba_upstream_boundary_buffered",
"crs": { "type": "name", "properties": { "name": "urn:ogc:def:crs:OGC:1.3:CRS84" } },
"features": [
{ "type": "Feature", "properties": { "fid": 1 }, "geometry": { "type": "Polygon", "coordinates": [ [ [ 31.59776845676971, 4.713116027426651 ], [ 31.597765959012474, 4.71306283430786 ], [ 31.597758276542319, 4.713010142957118 ], [ 31.597745483346873, 4.712958460821111 ], [ 31.597727702632817, 4.712908285627102 ], [ 31.597705105639282, 4.712860100589543 ], [ 31.597677909988704, 4.712814369756462 ], [ 31.597646377590927, 4.712771533540438 ], [ 31.59761081212087, 4.712732004477194 ], [ 31.597571556093925, 4.712696163252674 ], [ 31.597528987567333, 4.712664355036849 ], [ 31.597483516499274, 4.71263688615957 ], [ 31.597435580800731, 4.712614021160453 ], [ 31.597385642118237, 4.712595980241271 ], [ 31.597334181387897, 4.712582937145289 ], [ 31.597281694203811, 4.712575017484062 ], [ 31.59722868604522, 4.712572297527755 ], [ 31.597175667408525, 4.712574803470612 ], [ 31.597123148890972, 4.712582511178743 ], [ 31.597071636273355, 4.712595346422533 ], [ 31.597021625649134, 4.712613185591521 ], [ 31.596973598646809, 4.712635856884858 ], [ 31.596928017791644, 4.712663141965814 ], [ 31.596885322051325, 4.712694778064493 ], [ 31.596845922608477, 4.71273046050842 ], [ 31.596810198900798, 4.7127698456567 ], [ 31.596778494966884, 4.712812554209433 ], [ 31.596751116132957, 4.712858174860579 ], [ 31.596728326072387, 4.712906268258999 ], [ 31.596710344266398, 4.712956371239657 ], [ 31.596697343890298, 4.713008001284105 ], [ 31.596689450145686, 4.713060661167377 ], [ 31.596686739054672, 4.713113843746522 ], [ 31.596689236727681, 4.713167036844639 ], [ 31.596696919111974, 4.713219728183418 ], [ 31.596709712223227, 4.71327141031663 ], [ 31.596727492857994, 4.713321585517122 ], [ 31.596750089780187, 4.713369770570193 ], [ 31.59677728537012, 4.713415501427215 ], [ 31.59680881772027, 4.713458337674693 ], [ 31.596844383157549, 4.713497866775692 ], [ 31.596883639167835, 4.713533708042823 ], [ 31.596926207694516, 4.713565516304468 ], [ 31.596971678779422, 4.713592985229027 ], [ 31.597019614510891, 4.713615850275055 ], [ 31.59706955324117, 4.713633891238984 ], [ 31.597121014032286, 4.713646934375828 ], [ 31.597173501287813, 4.713654854072458 ], [ 31.597226509525761, 4.713657574057355 ], [ 31.597279528246684, 4.71365506813517 ], [ 31.597332046850095, 4.713647360439001 ], [ 31.597383559551908, 4.713634525198009 ], [ 31.597433570255415, 4.713616686022536 ], [ 31.597481597329079, 4.713594014713689 ], [ 31.597527178244892, 4.71356672960879 ], [ 31.597569874032843, 4.713535093478659 ], [ 31.597609273508464, 4.713499410996974 ], [ 31.597644997232806, 4.713460025806087 ], [ 31.597676701166627, 4.713417317207528 ], [ 31.597704079983718, 4.713371696509109 ], [ 31.597726870011343, 4.713323603063774 ], [ 31.597744851769558, 4.713273500038368 ], [ 31.597757852084886, 4.713221869953061 ], [ 31.59776574575805, 4.713169210034383 ], [ 31.59776845676971, 4.713116027426651 ] ] ] } }
]
}
