{
"type": "FeatureCollection",
"name": "Upstream_boundary_Khartoum",
"crs": { "type": "name", "properties": { "name": "urn:ogc:def:crs:OGC:1.3:CRS84" } },
"features": [
{ "type": "Feature", "properties": { "id": 1 }, "geometry": { "type": "MultiPolygon", "coordinates": [ [ [ [ 32.470418154608971, 15.353392368196939 ], [ 32.48559945234453, 15.352669449257153 ], [ 32.5059344625218, 15.358825920228252 ], [ 32.53881561429926, 15.364562631814959 ], [ 32.538629054572873, 15.356120804195497 ], [ 32.490496645162459, 15.346419698422858 ], [ 32.41699211296207, 15.346046578970064 ], [ 32.417738351867655, 15.353322408299546 ], [ 32.418717790431224, 15.357566642075076 ], [ 32.453557819335856, 15.35322912843634 ], [ 32.470418154608971, 15.353392368196939 ] ] ] ] } },
{ "type": "Feature", "properties": { "id": 2 }, "geometry": { "type": "MultiPolygon", "coordinates": [ [ [ [ 32.645294578140337, 15.530087749060646 ], [ 32.649119052531475, 15.530414228581842 ], [ 32.649585451847464, 15.521039602330395 ], [ 32.649678731710665, 15.508073701345808 ], [ 32.64571433752473, 15.508446820798602 ], [ 32.645294578140337, 15.530087749060646 ] ] ] ] } }
]
}
