{
"type": "FeatureCollection",
"name": "V2_Khartoem_extent",
"crs": { "type": "name", "properties": { "name": "urn:ogc:def:crs:OGC:1.3:CRS84" } },
"features": [
{ "type": "Feature", "properties": { "HYBAS_ID": 1090594290, "NEXT_DOWN": 1090592450, "NEXT_SINK": 1090034260, "MAIN_BAS": 1090034260, "DIST_SINK": 3164.6, "DIST_MAIN": 3164.6, "SUB_AREA": 261.9, "UP_AREA": 1979800.6, "PFAF_ID": 172309907, "SIDE": "M", "LAKE": 0, "ENDO": 0, "COAST": 0, "ORDER": 1, "SORT": 65018 }, "geometry": { "type": "MultiPolygon", "coordinates": [ [ [ [ 32.192255655924498, 15.382415262858103 ], [ 32.195833333333347, 15.383333333333363 ], [ 32.202210489908872, 15.383900621202287 ], [ 32.214456176757828, 15.395266045464439 ], [ 32.22721048990887, 15.396400621202286 ], [ 32.240763176812081, 15.408979119194909 ], [ 32.242233954535607, 15.414710489908884 ], [ 32.245266045464426, 15.41862284342451 ], [ 32.24654184977215, 15.428279283311662 ], [ 32.252210489908869, 15.429733954535621 ], [ 32.260289510091162, 15.436932712131107 ], [ 32.269945949978315, 15.438208516438833 ], [ 32.271400621202275, 15.443877156575551 ], [ 32.275395880805135, 15.449032253689266 ], [ 32.282482401529968, 15.450850931803416 ], [ 32.283900621202271, 15.456377156575552 ], [ 32.288459777832045, 15.461844041612444 ], [ 32.303267076280399, 15.463161214192739 ], [ 32.304166666666681, 15.466666666666697 ], [ 32.297575547960086, 15.467019992404545 ], [ 32.292022365993944, 15.472545539008276 ], [ 32.291313340928838, 15.481591118706628 ], [ 32.287853325737863, 15.485075547960101 ], [ 32.287146674262168, 15.49754621717668 ], [ 32.291313340928838, 15.501742214626766 ], [ 32.292019992404533, 15.506591118706629 ], [ 32.299646674262171, 15.514242214626767 ], [ 32.300353325737866, 15.519091118706628 ], [ 32.303813340928833, 15.5225755479601 ], [ 32.304519992404529, 15.527424452039963 ], [ 32.307980007595503, 15.530908881293435 ], [ 32.308686659071199, 15.539924452039962 ], [ 32.312485758463559, 15.543750339084232 ], [ 32.306623501247849, 15.549641927083364 ], [ 32.304166666666681, 15.55 ], [ 32.304166666666681, 15.554166666666697 ], [ 32.308333333333351, 15.554166666666697 ], [ 32.308900621202277, 15.577210489908886 ], [ 32.311932712131096, 15.581122843424511 ], [ 32.31306728786894, 15.588246663411489 ], [ 32.307937452528229, 15.594865587022602 ], [ 32.300614251030836, 15.596744961208799 ], [ 32.2993857489692, 15.624088372124598 ], [ 32.295833333333348, 15.625 ], [ 32.296819559733088, 15.628449503580761 ], [ 32.311697387695332, 15.629901801215309 ], [ 32.31311764187285, 15.639660135904979 ], [ 32.316049024793855, 15.643673197428416 ], [ 32.317284308539513, 15.647993469238314 ], [ 32.320215691460518, 15.652006530761751 ], [ 32.320833333333354, 15.654166666666699 ], [ 32.319982401529963, 15.657482401529979 ], [ 32.31445617675783, 15.658900621202289 ], [ 32.309037611219637, 15.663419426812098 ], [ 32.307766045464426, 15.673043823242219 ], [ 32.304733954535607, 15.676956176757844 ], [ 32.303599378797763, 15.681377156575554 ], [ 32.296400621202274, 15.689456176757844 ], [ 32.295833333333348, 15.691666666666698 ], [ 32.3, 15.691666666666698 ], [ 32.299646674262171, 15.694091118706631 ], [ 32.28995513916017, 15.703808932834233 ], [ 32.285075547960083, 15.704519992404546 ], [ 32.281591118706615, 15.707980007595518 ], [ 32.272575547960088, 15.708686659071212 ], [ 32.248257785373283, 15.732980007595518 ], [ 32.243408881293419, 15.733686659071214 ], [ 32.23785807291668, 15.739209832085535 ], [ 32.237146674262171, 15.744091118706629 ], [ 32.229519992404533, 15.75174221462677 ], [ 32.228813340928838, 15.768379550510016 ], [ 32.233318752712691, 15.772916666666699 ], [ 32.229519992404533, 15.776742214626768 ], [ 32.228813340928838, 15.789924452039964 ], [ 32.219121805826838, 15.799642266167568 ], [ 32.216666666666683, 15.8 ], [ 32.217233954535608, 15.802210489908887 ], [ 32.220266045464427, 15.806122843424513 ], [ 32.221400621202271, 15.823043823242221 ], [ 32.22443271213109, 15.826956176757847 ], [ 32.225567287868941, 15.834079996744826 ], [ 32.221400621202271, 15.839456176757846 ], [ 32.220172119140642, 15.853267076280416 ], [ 32.213350931803404, 15.855017598470086 ], [ 32.2125, 15.858333333333366 ], [ 32.212853325737861, 15.864924452039965 ], [ 32.216313340928835, 15.868408881293437 ], [ 32.217022365993941, 15.877454460991787 ], [ 32.222575547960083, 15.882980007595521 ], [ 32.231591118706618, 15.883686659071214 ], [ 32.235075547960086, 15.887146674262187 ], [ 32.241666666666681, 15.8875 ], [ 32.25, 15.8875 ], [ 32.256377156575539, 15.886932712131109 ], [ 32.260289510091162, 15.88390062120229 ], [ 32.265815734863295, 15.882482401529982 ], [ 32.266666666666687, 15.8791666666667 ], [ 32.269091118706612, 15.878813340928854 ], [ 32.272575547960088, 15.875353325737882 ], [ 32.275, 15.875 ], [ 32.27745683458118, 15.874641927083367 ], [ 32.282980007595505, 15.869091118706631 ], [ 32.283686659071201, 15.864242214626771 ], [ 32.287146674262168, 15.860757785373298 ], [ 32.287858072916684, 15.855876498752204 ], [ 32.293408881293416, 15.850353325737881 ], [ 32.295833333333348, 15.85 ], [ 32.30309210883248, 15.849227566189271 ], [ 32.305223931206612, 15.842493862575989 ], [ 32.315609402126753, 15.840839470757412 ], [ 32.317985704210088, 15.833333502875467 ], [ 32.328637695312516, 15.824332004123297 ], [ 32.331276448567728, 15.825667995876771 ], [ 32.337331644694025, 15.829834662543437 ], [ 32.362733120388469, 15.828366258409321 ], [ 32.357665337456616, 15.821001688639356 ], [ 32.360963270399324, 15.815377807617221 ], [ 32.372890218098973, 15.804834662543437 ], [ 32.383333333333354, 15.804166666666699 ], [ 32.389924452039949, 15.804519992404547 ], [ 32.39375, 15.808318752712706 ], [ 32.397575547960088, 15.804519992404547 ], [ 32.402424452039952, 15.803813340928853 ], [ 32.405908881293421, 15.800353325737881 ], [ 32.414924452039948, 15.799646674262187 ], [ 32.419120449490038, 15.795480007595518 ], [ 32.427424452039951, 15.796186659071214 ], [ 32.431620449490033, 15.800353325737881 ], [ 32.435757785373283, 15.799646674262187 ], [ 32.439242214626752, 15.796186659071214 ], [ 32.444123501247851, 15.795475260416699 ], [ 32.449646674262169, 15.789924452039964 ], [ 32.45, 15.7875 ], [ 32.45833333333335, 15.7875 ], [ 32.464924452039952, 15.787853325737881 ], [ 32.468408881293421, 15.791313340928852 ], [ 32.481591118706618, 15.792019992404548 ], [ 32.489242214626756, 15.799646674262187 ], [ 32.494091118706613, 15.800353325737881 ], [ 32.505908881293422, 15.812146674262186 ], [ 32.514924452039949, 15.81285332573788 ], [ 32.522575547960088, 15.820480007595521 ], [ 32.524792202900144, 15.825520524679291 ], [ 32.528150277975278, 15.825669772460408 ], [ 32.533333333333353, 15.825 ], [ 32.548257785373281, 15.825353325737881 ], [ 32.555908881293419, 15.83298000759552 ], [ 32.558333333333351, 15.833333333333368 ], [ 32.56213972303604, 15.832245042589008 ], [ 32.574444749620248, 15.818758477105067 ], [ 32.570215691460525, 15.812969122992655 ], [ 32.572077094184046, 15.809006924099425 ], [ 32.590859646267383, 15.807627699110277 ], [ 32.592666286892381, 15.795215691460537 ], [ 32.61466013590497, 15.796450975206197 ], [ 32.62283986409507, 15.80354902479387 ], [ 32.627160135904965, 15.80478430853953 ], [ 32.631173197428403, 15.807715691460537 ], [ 32.647993469238301, 15.808950975206196 ], [ 32.653697543674063, 15.813117641872864 ], [ 32.656326802571634, 15.811882358127203 ], [ 32.668673197428404, 15.800617641872863 ], [ 32.690668911404103, 15.799323018391959 ], [ 32.692825486924932, 15.791780598958367 ], [ 32.697839864095073, 15.788117641872862 ], [ 32.704052734375018, 15.786341179741786 ], [ 32.707715691460521, 15.781326802571648 ], [ 32.708333333333357, 15.779166666666701 ], [ 32.7125, 15.779166666666701 ], [ 32.716043090820335, 15.778257412380675 ], [ 32.71666666666669, 15.766666666666699 ], [ 32.719091118706615, 15.766313340928853 ], [ 32.722575547960091, 15.762853325737879 ], [ 32.727424452039955, 15.762146674262185 ], [ 32.730908881293423, 15.758686659071213 ], [ 32.733333333333356, 15.758333333333367 ], [ 32.741666666666688, 15.758333333333367 ], [ 32.742536417643251, 15.755036417643263 ], [ 32.748031277126756, 15.753586832682325 ], [ 32.756135389539949, 15.746413167317741 ], [ 32.765758260091168, 15.745109897189703 ], [ 32.76758778889976, 15.738175286187099 ], [ 32.782412211100279, 15.736824713812966 ], [ 32.784347025553409, 15.729491170247428 ], [ 32.790987311469209, 15.724420166015658 ], [ 32.798031277126761, 15.725579833984408 ], [ 32.803487311469205, 15.729746500651075 ], [ 32.818864610460089, 15.728586832682325 ], [ 32.822802056206619, 15.725579833984408 ], [ 32.836666191948808, 15.724316745334233 ], [ 32.837937757704012, 15.717881435818175 ], [ 32.829841952853755, 15.715745544433627 ], [ 32.829166666666687, 15.708333333333366 ], [ 32.825, 15.708333333333366 ], [ 32.824432712131099, 15.706122843424511 ], [ 32.82140062120228, 15.702210489908886 ], [ 32.820124816894555, 15.692554050021734 ], [ 32.813350931803406, 15.690815734863314 ], [ 32.811932712131096, 15.685289510091177 ], [ 32.804733954535614, 15.677210489908887 ], [ 32.803315734863304, 15.671684265136751 ], [ 32.79668426513674, 15.66998240152998 ], [ 32.795833333333356, 15.6666666666667 ], [ 32.788399590386305, 15.666005452473991 ], [ 32.786932712131097, 15.660289510091179 ], [ 32.782413906521292, 15.654870944552984 ], [ 32.772789510091165, 15.653599378797775 ], [ 32.768877156575542, 15.650567287868956 ], [ 32.764456176757832, 15.649432712131109 ], [ 32.759301079644118, 15.645437452528244 ], [ 32.757766045464429, 15.639456176757845 ], [ 32.753206888834654, 15.633989291720951 ], [ 32.745833333333351, 15.633333333333365 ], [ 32.745266045464433, 15.63112284342451 ], [ 32.742135450575105, 15.627083333333365 ], [ 32.745266045464433, 15.62304382324222 ], [ 32.746400621202277, 15.618622843424511 ], [ 32.750567287868947, 15.613246663411489 ], [ 32.749432712131096, 15.610289510091178 ], [ 32.746400621202277, 15.606377156575553 ], [ 32.744927639431445, 15.600637647840744 ], [ 32.725905693901929, 15.59936235215932 ], [ 32.724432712131097, 15.593622843424511 ], [ 32.721400621202278, 15.589710489908885 ], [ 32.719618394639781, 15.582766045464441 ], [ 32.714456176757835, 15.583900621202289 ], [ 32.710543823242205, 15.586932712131109 ], [ 32.701956176757832, 15.588067287868956 ], [ 32.697907850477449, 15.591204833984406 ], [ 32.689710489908876, 15.583900621202289 ], [ 32.681122843424497, 15.582766045464441 ], [ 32.675746663411481, 15.578599378797774 ], [ 32.668622843424501, 15.579733954535621 ], [ 32.663246663411478, 15.583900621202289 ], [ 32.659144253200978, 15.582326592339442 ], [ 32.657766045464427, 15.576956176757843 ], [ 32.650567287868945, 15.568877156575553 ], [ 32.649432712131095, 15.564456176757844 ], [ 32.636932712131099, 15.550988091362878 ], [ 32.638067287868942, 15.531122843424511 ], [ 32.641099378797762, 15.527210489908885 ], [ 32.642517598470072, 15.52168426513675 ], [ 32.645833333333357, 15.520833333333364 ], [ 32.645833333333357, 15.516666666666698 ], [ 32.645225863986568, 15.500913323296473 ], [ 32.638350931803409, 15.499149068196646 ], [ 32.636932712131099, 15.493622843424511 ], [ 32.628599378797766, 15.484270562066003 ], [ 32.62973395453561, 15.48112284342451 ], [ 32.63286454942493, 15.477083333333365 ], [ 32.62973395453561, 15.473043823242218 ], [ 32.628599378797766, 15.468622843424509 ], [ 32.625567287868947, 15.464710489908885 ], [ 32.625, 15.4625 ], [ 32.629431321885868, 15.461362881130672 ], [ 32.625567287868947, 15.456377156575552 ], [ 32.623862881130663, 15.449735344780846 ], [ 32.618877156575543, 15.453599378797774 ], [ 32.616666666666688, 15.454166666666698 ], [ 32.616313340928841, 15.451742214626766 ], [ 32.612514580620683, 15.447916666666696 ], [ 32.616313340928841, 15.444091118706627 ], [ 32.617019992404536, 15.4350755479601 ], [ 32.624646674262173, 15.427424452039961 ], [ 32.62535569932728, 15.418378872341609 ], [ 32.630908881293422, 15.412853325737878 ], [ 32.6375, 15.4125 ], [ 32.637854851616773, 15.405879550510013 ], [ 32.643408881293425, 15.400353325737877 ], [ 32.65, 15.4 ], [ 32.651214938693599, 15.404733954535621 ], [ 32.660543823242207, 15.403599378797773 ], [ 32.668622843424501, 15.396400621202286 ], [ 32.678237406412784, 15.395130411783885 ], [ 32.686932712131096, 15.385543823242218 ], [ 32.688419765896285, 15.379749552408883 ], [ 32.69778951009117, 15.371400621202287 ], [ 32.704166666666687, 15.370833333333364 ], [ 32.704784308539516, 15.360339864095081 ], [ 32.708950975206186, 15.354635789659318 ], [ 32.707715691460521, 15.352006530761749 ], [ 32.704784308539516, 15.347993469238311 ], [ 32.703431532118074, 15.334135945638049 ], [ 32.691049024793855, 15.332333713107669 ], [ 32.69228430853952, 15.318673197428415 ], [ 32.703549024793858, 15.306326802571643 ], [ 32.704934861924933, 15.296804979112443 ], [ 32.712386067708351, 15.294674513075115 ], [ 32.716105143229186, 15.289583333333363 ], [ 32.711882358127191, 15.283802456325983 ], [ 32.714188639322934, 15.278893534342476 ], [ 32.718673197428409, 15.275617641872859 ], [ 32.724703301323807, 15.273893568250898 ], [ 32.732715691460527, 15.264660135904977 ], [ 32.73425971137155, 15.259259711371557 ], [ 32.740740288628494, 15.257406955295167 ], [ 32.741666666666688, 15.254166666666695 ], [ 32.741666666666688, 15.245833333333362 ], [ 32.735075547960093, 15.245480007595514 ], [ 32.729524739583354, 15.239956834581193 ], [ 32.728813340928838, 15.235075547960099 ], [ 32.725353325737871, 15.231591118706625 ], [ 32.725, 15.229166666666696 ], [ 32.709246656629794, 15.229774136013484 ], [ 32.70743696424698, 15.236826239691869 ], [ 32.695086669921892, 15.238067287868953 ], [ 32.689710489908876, 15.233900621202286 ], [ 32.683333333333351, 15.233333333333363 ], [ 32.682672119140648, 15.240767076280411 ], [ 32.675661214192729, 15.24256625705298 ], [ 32.674432712131093, 15.256377156575549 ], [ 32.666083780924502, 15.265746900770427 ], [ 32.660289510091168, 15.267233954535619 ], [ 32.655134412977453, 15.271229214138483 ], [ 32.653599378797765, 15.277210489908883 ], [ 32.638067287868942, 15.293622843424508 ], [ 32.636932712131099, 15.298043823242217 ], [ 32.63390062120228, 15.301956176757841 ], [ 32.632766045464429, 15.30637715657555 ], [ 32.62973395453561, 15.310289510091176 ], [ 32.629166666666684, 15.3125 ], [ 32.618673197428407, 15.313117641872859 ], [ 32.61466013590497, 15.316049024793866 ], [ 32.611763339572505, 15.317284308539525 ], [ 32.602160135904967, 15.308950975206193 ], [ 32.595364210340733, 15.307715691460533 ], [ 32.589660135904964, 15.3118823581272 ], [ 32.585339864095069, 15.313117641872859 ], [ 32.580325486924934, 15.316780598958363 ], [ 32.578549024793858, 15.322993469238311 ], [ 32.575617641872853, 15.327006530761748 ], [ 32.574051411946634, 15.337767367892825 ], [ 32.567825486924932, 15.333219401041696 ], [ 32.565454101562523, 15.324925401475724 ], [ 32.560493469238303, 15.328549024793865 ], [ 32.550735134548631, 15.329969278971383 ], [ 32.54938235812719, 15.343826802571645 ], [ 32.546450975206184, 15.347839864095082 ], [ 32.544906955295161, 15.353240288628502 ], [ 32.53821716308596, 15.355152893066435 ], [ 32.514195610440801, 15.355240766378593 ], [ 32.506377156575539, 15.35473395453562 ], [ 32.499420080110184, 15.353748288567422 ], [ 32.481510346376105, 15.351957315194014 ], [ 32.428378136298342, 15.351957315194014 ], [ 32.3625, 15.395833333333364 ], [ 32.350909254286044, 15.396456909179717 ], [ 32.349432712131097, 15.402210489908885 ], [ 32.34543745252823, 15.4073655870226 ], [ 32.339456176757828, 15.408900621202287 ], [ 32.335543823242205, 15.411932712131106 ], [ 32.31757236056859, 15.413137647840742 ], [ 32.316666666666684, 15.416666666666696 ], [ 32.297575547960086, 15.41631334092885 ], [ 32.289924452039948, 15.408686659071211 ], [ 32.276742214626751, 15.407980007595516 ], [ 32.269091118706612, 15.400353325737877 ], [ 32.260075547960085, 15.399646674262183 ], [ 32.254522365993942, 15.394121127658451 ], [ 32.253813340928836, 15.385075547960099 ], [ 32.242019992404529, 15.373257785373294 ], [ 32.241313340928833, 15.368408881293433 ], [ 32.237853325737866, 15.364924452039961 ], [ 32.2375, 15.3625 ], [ 32.237146674262171, 15.360075547960099 ], [ 32.229519992404533, 15.35242445203996 ], [ 32.229166666666686, 15.35 ], [ 32.214242214626751, 15.349646674262182 ], [ 32.210757785373282, 15.346186659071209 ], [ 32.197575547960085, 15.345480007595516 ], [ 32.194091118706616, 15.342019992404543 ], [ 32.183333333333351, 15.341666666666697 ], [ 32.183686659071199, 15.344091118706627 ], [ 32.191313340928836, 15.351742214626766 ], [ 32.191666666666684, 15.354166666666696 ], [ 32.192255655924498, 15.382415262858103 ] ] ] ] } }
]
}
