{
"type": "FeatureCollection",
"name": "addis_sfincsmodel_01",
"crs": { "type": "name", "properties": { "name": "urn:ogc:def:crs:OGC:1.3:CRS84" } },
"xy_coordinate_resolution": 1e-15,
"features": [
{ "type": "Feature", "properties": { "HYBAS_ID": 1120866960.0, "NEXT_DOWN": 1120875000.0, "NEXT_SINK": 1120040320.0, "MAIN_BAS": 1120040320.0, "DIST_SINK": 922.2, "DIST_MAIN": 922.2, "SUB_AREA": 120.6, "UP_AREA": 412.2, "PFAF_ID": 115719802100.0, "ENDO": 1, "COAST": 0, "ORDER_": 3, "SORT": 174556.0, "dis_m3_pyr": 2.8880000114440918, "dis_m3_pmn": 0.41299998760223389, "dis_m3_pmx": 13.032999992370605, "run_mm_syr": 215, "inu_pc_smn": 6, "inu_pc_umn": 2, "inu_pc_smx": 8, "inu_pc_umx": 3, "inu_pc_slt": 13, "inu_pc_ult": 4, "lka_pc_sse": 4, "lka_pc_use": 4, "lkv_mc_usu": 7, "rev_mc_usu": 0, "dor_pc_pva": 0, "ria_ha_ssu": 32.112998962402344, "ria_ha_usu": 76.66400146484375, "riv_tc_ssu": 191.80799865722656, "riv_tc_usu": 328.69000244140625, "gwt_cm_sav": 251, "ele_mt_sav": 2179, "ele_mt_uav": 2433, "ele_mt_smn": 2047, "ele_mt_smx": 2764, "slp_dg_sav": 42, "slp_dg_uav": 50, "sgr_dk_sav": 83, "clz_cl_smj": 14, "cls_cl_smj": 88, "tmp_dc_syr": 178, "tmp_dc_uyr": 160, "tmp_dc_smn": 167, "tmp_dc_smx": 196, "tmp_dc_s01": 169, "tmp_dc_s02": 182, "tmp_dc_s03": 196, "tmp_dc_s04": 192, "tmp_dc_s05": 194, "tmp_dc_s06": 179, "tmp_dc_s07": 170, "tmp_dc_s08": 170, "tmp_dc_s09": 173, "tmp_dc_s10": 175, "tmp_dc_s11": 168, "tmp_dc_s12": 167, "pre_mm_syr": 1029, "pre_mm_uyr": 1115, "pre_mm_s01": 14, "pre_mm_s02": 29, "pre_mm_s03": 60, "pre_mm_s04": 78, "pre_mm_s05": 74, "pre_mm_s06": 104, "pre_mm_s07": 243, "pre_mm_s08": 252, "pre_mm_s09": 133, "pre_mm_s10": 28, "pre_mm_s11": 6, "pre_mm_s12": 8, "pet_mm_syr": 1683, "pet_mm_uyr": 1541, "pet_mm_s01": 141, "pet_mm_s02": 136, "pet_mm_s03": 163, "pet_mm_s04": 152, "pet_mm_s05": 160, "pet_mm_s06": 137, "pet_mm_s07": 121, "pet_mm_s08": 123, "pet_mm_s09": 131, "pet_mm_s10": 145, "pet_mm_s11": 138, "pet_mm_s12": 136, "aet_mm_syr": 839, "aet_mm_uyr": 851, "aet_mm_s01": 41, "aet_mm_s02": 33, "aet_mm_s03": 41, "aet_mm_s04": 45, "aet_mm_s05": 54, "aet_mm_s06": 55, "aet_mm_s07": 79, "aet_mm_s08": 117, "aet_mm_s09": 126, "aet_mm_s10": 114, "aet_mm_s11": 77, "aet_mm_s12": 54, "ari_ix_sav": 62, "ari_ix_uav": 73, "cmi_ix_syr": -39, "cmi_ix_uyr": -27, "cmi_ix_s01": -90, "cmi_ix_s02": -78, "cmi_ix_s03": -63, "cmi_ix_s04": -48, "cmi_ix_s05": -54, "cmi_ix_s06": -23, "cmi_ix_s07": 50, "cmi_ix_s08": 51, "cmi_ix_s09": 1, "cmi_ix_s10": -80, "cmi_ix_s11": -95, "cmi_ix_s12": -94, "snw_pc_syr": 0, "snw_pc_uyr": 0, "snw_pc_smx": 0, "snw_pc_s01": 0, "snw_pc_s02": 0, "snw_pc_s03": 0, "snw_pc_s04": 0, "snw_pc_s05": 0, "snw_pc_s06": 0, "snw_pc_s07": 0, "snw_pc_s08": 0, "snw_pc_s09": 0, "snw_pc_s10": 0, "snw_pc_s11": 0, "snw_pc_s12": 0, "glc_cl_smj": 16, "glc_pc_s01": 0, "glc_pc_s02": 0, "glc_pc_s03": 0, "glc_pc_s04": 0, "glc_pc_s05": 0, "glc_pc_s06": 0, "glc_pc_s07": 0, "glc_pc_s08": 0, "glc_pc_s09": 0, "glc_pc_s10": 0, "glc_pc_s11": 0, "glc_pc_s12": 0, "glc_pc_s13": 0, "glc_pc_s14": 0, "glc_pc_s15": 0, "glc_pc_s16": 93, "glc_pc_s17": 0, "glc_pc_s18": 0, "glc_pc_s19": 0, "glc_pc_s20": 0, "glc_pc_s21": 0, "glc_pc_s22": 7, "glc_pc_u01": 0, "glc_pc_u02": 0, "glc_pc_u03": 0, "glc_pc_u04": 0, "glc_pc_u05": 0, "glc_pc_u06": 0, "glc_pc_u07": 0, "glc_pc_u08": 0, "glc_pc_u09": 0, "glc_pc_u10": 0, "glc_pc_u11": 0, "glc_pc_u12": 4, "glc_pc_u13": 0, "glc_pc_u14": 0, "glc_pc_u15": 0, "glc_pc_u16": 81, "glc_pc_u17": 0, "glc_pc_u18": 3, "glc_pc_u19": 0, "glc_pc_u20": 0, "glc_pc_u21": 0, "glc_pc_u22": 11, "pnv_cl_smj": 9, "pnv_pc_s01": 0, "pnv_pc_s02": 0, "pnv_pc_s03": 14, "pnv_pc_s04": 0, "pnv_pc_s05": 0, "pnv_pc_s06": 0, "pnv_pc_s07": 0, "pnv_pc_s08": 0, "pnv_pc_s09": 86, "pnv_pc_s10": 0, "pnv_pc_s11": 0, "pnv_pc_s12": 0, "pnv_pc_s13": 0, "pnv_pc_s14": 0, "pnv_pc_s15": 0, "pnv_pc_u01": 0, "pnv_pc_u02": 0, "pnv_pc_u03": 62, "pnv_pc_u04": 0, "pnv_pc_u05": 0, "pnv_pc_u06": 0, "pnv_pc_u07": 0, "pnv_pc_u08": 0, "pnv_pc_u09": 35, "pnv_pc_u10": 2, "pnv_pc_u11": 0, "pnv_pc_u12": 0, "pnv_pc_u13": 0, "pnv_pc_u14": 0, "pnv_pc_u15": 0, "wet_cl_smj": 1, "wet_pc_sg1": 3, "wet_pc_ug1": 1, "wet_pc_sg2": 0, "wet_pc_ug2": 0, "wet_pc_s01": 3, "wet_pc_s02": 0, "wet_pc_s03": 0, "wet_pc_s04": 0, "wet_pc_s05": 0, "wet_pc_s06": 0, "wet_pc_s07": 0, "wet_pc_s08": 0, "wet_pc_s09": 0, "wet_pc_u01": 1, "wet_pc_u02": 0, "wet_pc_u03": 0, "wet_pc_u04": 0, "wet_pc_u05": 0, "wet_pc_u06": 0, "wet_pc_u07": 0, "wet_pc_u08": 0, "wet_pc_u09": 0, "for_pc_sse": 0, "for_pc_use": 0, "crp_pc_sse": 44, "crp_pc_use": 37, "pst_pc_sse": 1, "pst_pc_use": 2, "ire_pc_sse": 2, "ire_pc_use": 1, "gla_pc_sse": 0, "gla_pc_use": 0, "prm_pc_sse": 0, "prm_pc_use": 0, "pac_pc_sse": 0, "pac_pc_use": 0, "tbi_cl_smj": 10, "tec_cl_smj": 79, "fmh_cl_smj": 3, "fec_cl_smj": 525, "cly_pc_sav": 38, "cly_pc_uav": 35, "slt_pc_sav": 27, "slt_pc_uav": 26, "snd_pc_sav": 36, "snd_pc_uav": 39, "soc_th_sav": 26, "soc_th_uav": 29, "swc_pc_syr": 51, "swc_pc_uyr": 57, "swc_pc_s01": 30, "swc_pc_s02": 25, "swc_pc_s03": 25, "swc_pc_s04": 29, "swc_pc_s05": 33, "swc_pc_s06": 39, "swc_pc_s07": 62, "swc_pc_s08": 90, "swc_pc_s09": 97, "swc_pc_s10": 82, "swc_pc_s11": 59, "swc_pc_s12": 41, "lit_cl_smj": 2, "kar_pc_sse": 0, "kar_pc_use": 0, "ero_kh_sav": 17644, "ero_kh_uav": 16427, "pop_ct_ssu": 230.43800354003906, "pop_ct_usu": 1687.02197265625, "ppd_pk_sav": 1903.0439453125, "ppd_pk_uav": 4086.89501953125, "urb_pc_sse": 33, "urb_pc_use": 50, "nli_ix_sav": 2064, "nli_ix_uav": 2900, "rdd_mk_sav": 3135, "rdd_mk_uav": 5436, "hft_ix_s93": 188, "hft_ix_u93": 211, "hft_ix_s09": 228, "hft_ix_u09": 248, "gad_id_smj": 74, "gdp_ud_sav": 1530, "gdp_ud_ssu": 416183264.0, "gdp_ud_usu": 2583186944.0, "hdi_ix_sav": 448, "Shape_Length": 0.52186566820114033, "Shape_Area": 0.0098747674722726164 }, "geometry": { "type": "MultiPolygon", "coordinates": [ [ [ [ 38.700909254258704, 8.813123575992279 ], [ 38.699432712249916, 8.818877156955296 ], [ 38.671400621041869, 8.847789509977929 ], [ 38.670833333191808, 8.86250000037478 ], [ 38.670833333191808, 8.875000000349758 ], [ 38.671684265416559, 8.878315904155727 ], [ 38.677210489672404, 8.879733954258654 ], [ 38.681122843644346, 8.882766045516632 ], [ 38.683333333166843, 8.883333333366693 ], [ 38.682766045316782, 8.88554382288919 ], [ 38.679733954958124, 8.889456176861131 ], [ 38.678599378358683, 8.893877156805388 ], [ 38.675468784356951, 8.897916666820777 ], [ 38.678599378358683, 8.901956176836165 ], [ 38.679733954958124, 8.904913330286035 ], [ 38.675567287999968, 8.910289509853044 ], [ 38.674338786206079, 8.924100409306504 ], [ 38.668622843669368, 8.925567288099899 ], [ 38.656377156680492, 8.936932712374812 ], [ 38.650738695234622, 8.938379584849997 ], [ 38.649432712349835, 8.946579997169181 ], [ 38.653704833811105, 8.952092149732948 ], [ 38.645250447550154, 8.961580403812661 ], [ 38.6394561767612, 8.963067288024945 ], [ 38.631377156730423, 8.970266045341759 ], [ 38.622789509828067, 8.97140062104188 ], [ 38.618877156755445, 8.974432712299858 ], [ 38.612500000274849, 8.975000000149919 ], [ 38.60833333331675, 8.975000000149919 ], [ 38.600000000299815, 8.975000000149919 ], [ 38.595833333341716, 8.975000000149919 ], [ 38.594982401116965, 8.978315903955831 ], [ 38.591666666383617, 8.979166667108075 ], [ 38.592019992029066, 8.981591118835127 ], [ 38.595480007696267, 8.985075548397901 ], [ 38.596186658987165, 8.994091118810161 ], [ 38.599646674654366, 8.997575548372936 ], [ 38.600353325945264, 9.00171305301501 ], [ 38.596186658987165, 9.005908881389814 ], [ 38.595833333341716, 9.012500000074965 ], [ 38.599149068075064, 9.013350762327889 ], [ 38.600567288149875, 9.018877156555561 ], [ 38.603599378508591, 9.022789510527559 ], [ 38.604733954208655, 9.056377156480607 ], [ 38.60776604546669, 9.060289510452606 ], [ 38.608900621166811, 9.081377156430676 ], [ 38.611932712424789, 9.085289510402617 ], [ 38.61306728812491, 9.089710490346874 ], [ 38.616201612514431, 9.093754746984018 ], [ 38.611482577459014, 9.09941304567559 ], [ 38.583333333366681, 9.099999999900149 ], [ 38.582980007721233, 9.1065911185853 ], [ 38.579519992054031, 9.110075548148075 ], [ 38.578813340763134, 9.114924451602235 ], [ 38.575353325995252, 9.11840888116501 ], [ 38.575000000349803, 9.120833332892062 ], [ 38.575000000349803, 9.124999999850161 ], [ 38.577210489872243, 9.125567287700221 ], [ 38.581122843844241, 9.128599378958199 ], [ 38.593877156805377, 9.12973395465832 ], [ 38.599253336372442, 9.133900621616419 ], [ 38.602210489822312, 9.132766045017036 ], [ 38.606122843794253, 9.12973395465832 ], [ 38.61054382283919, 9.128599378958199 ], [ 38.615920003305575, 9.1244327120001 ], [ 38.618877156755445, 9.125567287700221 ], [ 38.624253336322454, 9.12973395465832 ], [ 38.627210489772324, 9.128599378958199 ], [ 38.635289509803101, 9.121400621641442 ], [ 38.639710489747358, 9.120266045042001 ], [ 38.643622843719299, 9.117233954683286 ], [ 38.653247239868278, 9.115962388853234 ], [ 38.65776604536677, 9.110543823338844 ], [ 38.659548272334973, 9.103599379008187 ], [ 38.668877156655526, 9.104733954708308 ], [ 38.674253336222534, 9.108900620767088 ], [ 38.682453579469154, 9.107594468809737 ], [ 38.684184265391593, 9.100850762153016 ], [ 38.689710489647439, 9.099432712050088 ], [ 38.697907850566878, 9.09212849933084 ], [ 38.702083333579026, 9.095364718706833 ], [ 38.706122843594414, 9.092233954733274 ], [ 38.708333333116855, 9.091666666883214 ], [ 38.708333333116855, 9.087499999925114 ], [ 38.737500000025022, 9.087499999925114 ], [ 38.737146674379574, 9.072575548223028 ], [ 38.733686658712372, 9.069091118660253 ], [ 38.732980007421475, 9.055908881289895 ], [ 38.728813341362638, 9.05171305381441 ], [ 38.729519992653593, 9.043408881314861 ], [ 38.741313341337673, 9.031591118735207 ], [ 38.742019992628627, 9.022575548322948 ], [ 38.745480007396452, 9.019091118760173 ], [ 38.746191067164091, 9.014211696812424 ], [ 38.755908881289884, 9.004519992703536 ], [ 38.758333333016935, 9.004166667058087 ], [ 38.765873379452955, 9.003447130280904 ], [ 38.767137485406693, 8.994892374283722 ], [ 38.757728237668061, 8.984120686920221 ], [ 38.758938429265129, 8.972827148154408 ], [ 38.761894904626217, 8.968839518229231 ], [ 38.763105095323965, 8.960327148179374 ], [ 38.766061570684997, 8.956339518254197 ], [ 38.76666666693319, 8.933333333266773 ], [ 38.76609937908313, 8.926956176786177 ], [ 38.761932712125031, 8.921579996319849 ], [ 38.763067287825152, 8.910289509853044 ], [ 38.76609937908313, 8.906377156780422 ], [ 38.767233954783251, 8.89778950987801 ], [ 38.770364549684246, 8.893749999862678 ], [ 38.767233954783251, 8.889710489847289 ], [ 38.76609937908313, 8.868622843869218 ], [ 38.761932712125031, 8.863246663402833 ], [ 38.763067287825152, 8.856122842994864 ], [ 38.766931322122844, 8.851137288455163 ], [ 38.759184265241686, 8.849149238146879 ], [ 38.757413567582148, 8.842249552175133 ], [ 38.748043823463718, 8.833900621316673 ], [ 38.743622843519461, 8.832766045616552 ], [ 38.73971048954752, 8.829733954358574 ], [ 38.735289510502582, 8.828599378658453 ], [ 38.727210489572485, 8.821400621341638 ], [ 38.713399590119025, 8.820172119547749 ], [ 38.712500000075011, 8.816666666533479 ], [ 38.712500000075011, 8.81249999957538 ], [ 38.700909254258704, 8.813123575992279 ] ] ] ] } }
]
}
