{
"type": "FeatureCollection",
"name": "addis_sfincsmodel_02",
"crs": { "type": "name", "properties": { "name": "urn:ogc:def:crs:OGC:1.3:CRS84" } },
"xy_coordinate_resolution": 1e-15,
"features": [
{ "type": "Feature", "properties": { "HYBAS_ID": 1120866970.0, "NEXT_DOWN": 1120875000.0, "NEXT_SINK": 1120040320.0, "MAIN_BAS": 1120040320.0, "DIST_SINK": 922.4, "DIST_MAIN": 922.4, "SUB_AREA": 178.4, "UP_AREA": 1040.3, "PFAF_ID": 115719803000.0, "ENDO": 1, "COAST": 0, "ORDER_": 2, "SORT": 174557.0, "dis_m3_pyr": 6.3569998741149902, "dis_m3_pmn": 0.82700002193450928, "dis_m3_pmx": 30.853000640869141, "run_mm_syr": 199, "inu_pc_smn": 2, "inu_pc_umn": 2, "inu_pc_smx": 4, "inu_pc_umx": 4, "inu_pc_slt": 6, "inu_pc_ult": 7, "lka_pc_sse": 0, "lka_pc_use": 4, "lkv_mc_usu": 44, "rev_mc_usu": 38, "dor_pc_pva": 190, "ria_ha_ssu": 54.134998321533203, "ria_ha_usu": 209.60800170898438, "riv_tc_ssu": 449.45700073242188, "riv_tc_usu": 1137.5579833984375, "gwt_cm_sav": 269, "ele_mt_sav": 2146, "ele_mt_uav": 2469, "ele_mt_smn": 2050, "ele_mt_smx": 2338, "slp_dg_sav": 25, "slp_dg_uav": 46, "sgr_dk_sav": 82, "clz_cl_smj": 14, "cls_cl_smj": 88, "tmp_dc_syr": 182, "tmp_dc_uyr": 160, "tmp_dc_smn": 171, "tmp_dc_smx": 200, "tmp_dc_s01": 172, "tmp_dc_s02": 185, "tmp_dc_s03": 200, "tmp_dc_s04": 195, "tmp_dc_s05": 198, "tmp_dc_s06": 182, "tmp_dc_s07": 174, "tmp_dc_s08": 174, "tmp_dc_s09": 177, "tmp_dc_s10": 180, "tmp_dc_s11": 173, "tmp_dc_s12": 171, "pre_mm_syr": 993, "pre_mm_uyr": 1065, "pre_mm_s01": 13, "pre_mm_s02": 27, "pre_mm_s03": 58, "pre_mm_s04": 76, "pre_mm_s05": 70, "pre_mm_s06": 97, "pre_mm_s07": 239, "pre_mm_s08": 245, "pre_mm_s09": 127, "pre_mm_s10": 27, "pre_mm_s11": 6, "pre_mm_s12": 7, "pet_mm_syr": 1714, "pet_mm_uyr": 1527, "pet_mm_s01": 143, "pet_mm_s02": 138, "pet_mm_s03": 166, "pet_mm_s04": 154, "pet_mm_s05": 163, "pet_mm_s06": 140, "pet_mm_s07": 124, "pet_mm_s08": 125, "pet_mm_s09": 133, "pet_mm_s10": 148, "pet_mm_s11": 141, "pet_mm_s12": 139, "aet_mm_syr": 826, "aet_mm_uyr": 841, "aet_mm_s01": 40, "aet_mm_s02": 32, "aet_mm_s03": 40, "aet_mm_s04": 44, "aet_mm_s05": 52, "aet_mm_s06": 53, "aet_mm_s07": 78, "aet_mm_s08": 116, "aet_mm_s09": 128, "aet_mm_s10": 114, "aet_mm_s11": 77, "aet_mm_s12": 53, "ari_ix_sav": 58, "ari_ix_uav": 70, "cmi_ix_syr": -42, "cmi_ix_uyr": -30, "cmi_ix_s01": -91, "cmi_ix_s02": -80, "cmi_ix_s03": -65, "cmi_ix_s04": -51, "cmi_ix_s05": -57, "cmi_ix_s06": -30, "cmi_ix_s07": 48, "cmi_ix_s08": 49, "cmi_ix_s09": -5, "cmi_ix_s10": -81, "cmi_ix_s11": -96, "cmi_ix_s12": -95, "snw_pc_syr": 0, "snw_pc_uyr": 0, "snw_pc_smx": 0, "snw_pc_s01": 0, "snw_pc_s02": 0, "snw_pc_s03": 0, "snw_pc_s04": 0, "snw_pc_s05": 0, "snw_pc_s06": 0, "snw_pc_s07": 0, "snw_pc_s08": 0, "snw_pc_s09": 0, "snw_pc_s10": 0, "snw_pc_s11": 0, "snw_pc_s12": 0, "glc_cl_smj": 16, "glc_pc_s01": 0, "glc_pc_s02": 0, "glc_pc_s03": 0, "glc_pc_s04": 0, "glc_pc_s05": 0, "glc_pc_s06": 0, "glc_pc_s07": 0, "glc_pc_s08": 0, "glc_pc_s09": 0, "glc_pc_s10": 0, "glc_pc_s11": 0, "glc_pc_s12": 0, "glc_pc_s13": 0, "glc_pc_s14": 0, "glc_pc_s15": 0, "glc_pc_s16": 100, "glc_pc_s17": 0, "glc_pc_s18": 0, "glc_pc_s19": 0, "glc_pc_s20": 0, "glc_pc_s21": 0, "glc_pc_s22": 0, "glc_pc_u01": 0, "glc_pc_u02": 0, "glc_pc_u03": 0, "glc_pc_u04": 0, "glc_pc_u05": 0, "glc_pc_u06": 0, "glc_pc_u07": 0, "glc_pc_u08": 0, "glc_pc_u09": 0, "glc_pc_u10": 0, "glc_pc_u11": 0, "glc_pc_u12": 1, "glc_pc_u13": 0, "glc_pc_u14": 0, "glc_pc_u15": 0, "glc_pc_u16": 81, "glc_pc_u17": 0, "glc_pc_u18": 11, "glc_pc_u19": 0, "glc_pc_u20": 0, "glc_pc_u21": 0, "glc_pc_u22": 7, "pnv_cl_smj": 9, "pnv_pc_s01": 0, "pnv_pc_s02": 0, "pnv_pc_s03": 0, "pnv_pc_s04": 0, "pnv_pc_s05": 0, "pnv_pc_s06": 0, "pnv_pc_s07": 0, "pnv_pc_s08": 0, "pnv_pc_s09": 100, "pnv_pc_s10": 0, "pnv_pc_s11": 0, "pnv_pc_s12": 0, "pnv_pc_s13": 0, "pnv_pc_s14": 0, "pnv_pc_s15": 0, "pnv_pc_u01": 0, "pnv_pc_u02": 0, "pnv_pc_u03": 13, "pnv_pc_u04": 0, "pnv_pc_u05": 0, "pnv_pc_u06": 0, "pnv_pc_u07": 0, "pnv_pc_u08": 0, "pnv_pc_u09": 86, "pnv_pc_u10": 0, "pnv_pc_u11": 0, "pnv_pc_u12": 0, "pnv_pc_u13": 0, "pnv_pc_u14": 0, "pnv_pc_u15": 0, "wet_cl_smj": 1, "wet_pc_sg1": 1, "wet_pc_ug1": 1, "wet_pc_sg2": 0, "wet_pc_ug2": 0, "wet_pc_s01": 1, "wet_pc_s02": 0, "wet_pc_s03": 0, "wet_pc_s04": 0, "wet_pc_s05": 0, "wet_pc_s06": 0, "wet_pc_s07": 0, "wet_pc_s08": 0, "wet_pc_s09": 0, "wet_pc_u01": 1, "wet_pc_u02": 0, "wet_pc_u03": 0, "wet_pc_u04": 0, "wet_pc_u05": 0, "wet_pc_u06": 0, "wet_pc_u07": 0, "wet_pc_u08": 0, "wet_pc_u09": 0, "for_pc_sse": 0, "for_pc_use": 0, "crp_pc_sse": 39, "crp_pc_use": 29, "pst_pc_sse": 4, "pst_pc_use": 6, "ire_pc_sse": 1, "ire_pc_use": 1, "gla_pc_sse": 0, "gla_pc_use": 0, "prm_pc_sse": 0, "prm_pc_use": 0, "pac_pc_sse": 0, "pac_pc_use": 0, "tbi_cl_smj": 10, "tec_cl_smj": 79, "fmh_cl_smj": 4, "fec_cl_smj": 528, "cly_pc_sav": 40, "cly_pc_uav": 38, "slt_pc_sav": 29, "slt_pc_uav": 28, "snd_pc_sav": 31, "snd_pc_uav": 34, "soc_th_sav": 25, "soc_th_uav": 29, "swc_pc_syr": 49, "swc_pc_uyr": 56, "swc_pc_s01": 29, "swc_pc_s02": 23, "swc_pc_s03": 23, "swc_pc_s04": 27, "swc_pc_s05": 31, "swc_pc_s06": 37, "swc_pc_s07": 59, "swc_pc_s08": 88, "swc_pc_s09": 96, "swc_pc_s10": 81, "swc_pc_s11": 57, "swc_pc_s12": 40, "lit_cl_smj": 2, "kar_pc_sse": 0, "kar_pc_use": 0, "ero_kh_sav": 8645, "ero_kh_uav": 15553, "pop_ct_ssu": 168.97099304199219, "pop_ct_usu": 1688.1820068359375, "ppd_pk_sav": 945.25201416015625, "ppd_pk_uav": 1619.697021484375, "urb_pc_sse": 38, "urb_pc_use": 30, "nli_ix_sav": 1375, "nli_ix_uav": 1500, "rdd_mk_sav": 2563, "rdd_mk_uav": 2493, "hft_ix_s93": 155, "hft_ix_u93": 152, "hft_ix_s09": 220, "hft_ix_u09": 196, "gad_id_smj": 74, "gdp_ud_sav": 1530, "gdp_ud_ssu": 329345856.0, "gdp_ud_usu": 3329683968.0, "hdi_ix_sav": 448, "Shape_Length": 0.59850963987895378, "Shape_Area": 0.014603919286270271 }, "geometry": { "type": "MultiPolygon", "coordinates": [ [ [ [ 38.773257785618341, 8.799646673954896 ], [ 38.760787116132576, 8.800353326145114 ], [ 38.756591118685208, 8.796186659187015 ], [ 38.739953783140606, 8.795480007896117 ], [ 38.735757785693295, 8.799646673954896 ], [ 38.722575548322936, 8.800353326145114 ], [ 38.717021517928742, 8.805879720372843 ], [ 38.71666666703311, 8.81249999957538 ], [ 38.712500000075011, 8.81249999957538 ], [ 38.712500000075011, 8.816666666533479 ], [ 38.713399590119025, 8.820172119547749 ], [ 38.727210489572485, 8.821400621341638 ], [ 38.735289510502582, 8.828599378658453 ], [ 38.73971048954752, 8.829733954358574 ], [ 38.743622843519461, 8.832766045616552 ], [ 38.748043823463718, 8.833900621316673 ], [ 38.757413567582148, 8.842249552175133 ], [ 38.759184265241686, 8.849149238146879 ], [ 38.766931322122844, 8.851137288455163 ], [ 38.763067287825152, 8.856122842994864 ], [ 38.761932712125031, 8.863246663402833 ], [ 38.76609937908313, 8.868622843869218 ], [ 38.767233954783251, 8.889710489847289 ], [ 38.770364549684246, 8.893749999862678 ], [ 38.767233954783251, 8.89778950987801 ], [ 38.76609937908313, 8.906377156780422 ], [ 38.763067287825152, 8.910289509853044 ], [ 38.761932712125031, 8.921579996319849 ], [ 38.76609937908313, 8.926956176786177 ], [ 38.76666666693319, 8.933333333266773 ], [ 38.766061570684997, 8.956339518254197 ], [ 38.763105095323965, 8.960327148179374 ], [ 38.761894904626217, 8.968839518229231 ], [ 38.758938429265129, 8.972827148154408 ], [ 38.757728237668061, 8.984120686920221 ], [ 38.767137485406693, 8.994892374283722 ], [ 38.765873379452955, 9.003447130280904 ], [ 38.758333333016935, 9.004166667058087 ], [ 38.755908881289884, 9.004519992703536 ], [ 38.746191067164091, 9.014211696812424 ], [ 38.745480007396452, 9.019091118760173 ], [ 38.742019992628627, 9.022575548322948 ], [ 38.741313341337673, 9.031591118735207 ], [ 38.729519992653593, 9.043408881314861 ], [ 38.728813341362638, 9.05171305381441 ], [ 38.732980007421475, 9.055908881289895 ], [ 38.733686658712372, 9.069091118660253 ], [ 38.737146674379574, 9.072575548223028 ], [ 38.737500000025022, 9.087499999925114 ], [ 38.73971048954752, 9.088067287775175 ], [ 38.743622843519461, 9.091099379033153 ], [ 38.752210489522554, 9.092233954733274 ], [ 38.756122843494495, 9.095266045091932 ], [ 38.762104119309697, 9.096801079905958 ], [ 38.76609937908313, 9.101956176436431 ], [ 38.767517598258621, 9.10748257066416 ], [ 38.773043823413786, 9.108900620767088 ], [ 38.777083333429175, 9.112031385639966 ], [ 38.781122843444507, 9.108900620767088 ], [ 38.811586676284151, 9.107725694285421 ], [ 38.812499999875172, 9.104166666858248 ], [ 38.816666666833271, 9.104166666858248 ], [ 38.819091118560323, 9.104519992503697 ], [ 38.828811815013296, 9.114214409867145 ], [ 38.829166666808305, 9.120833332892062 ], [ 38.829519992453754, 9.127424452476532 ], [ 38.832980007221636, 9.130908881139987 ], [ 38.833686659411853, 9.135757785493468 ], [ 38.837146674179735, 9.139242215056242 ], [ 38.837853325470633, 9.143379719698373 ], [ 38.833686659411853, 9.147575548073121 ], [ 38.833333333766404, 9.154166666758329 ], [ 38.828902011618595, 9.155303954813689 ], [ 38.832766045017024, 9.160289510252767 ], [ 38.833900621616465, 9.164710490197024 ], [ 38.836932711975123, 9.168622843269645 ], [ 38.838067287675244, 9.193877156205815 ], [ 38.841099378933222, 9.197789510177813 ], [ 38.841666666783283, 9.212499999675288 ], [ 38.852210490221978, 9.213067287525348 ], [ 38.860289510252755, 9.220266045741482 ], [ 38.868877156255792, 9.221400621441603 ], [ 38.874253336722177, 9.225567287500382 ], [ 38.89804382316396, 9.224432711800262 ], [ 38.906122843194737, 9.217233954483447 ], [ 38.927210490072127, 9.216099378783326 ], [ 38.931122843144749, 9.213067287525348 ], [ 38.935543823089006, 9.211932711825227 ], [ 38.940920003555391, 9.207766045766448 ], [ 38.943877157005261, 9.208900621466569 ], [ 38.949253336572269, 9.213067287525348 ], [ 38.957453748891453, 9.211761304640561 ], [ 38.959184095769444, 9.205017598883103 ], [ 38.962499999575357, 9.204166666658409 ], [ 38.964710489997174, 9.203599378808349 ], [ 38.968750000012562, 9.200468783907297 ], [ 38.972789510027894, 9.203599378808349 ], [ 38.982445949920702, 9.204875183143258 ], [ 38.984184095719513, 9.211649068349857 ], [ 38.989710489947186, 9.213067287525348 ], [ 38.993622843019864, 9.216099378783326 ], [ 38.995833333441624, 9.216666666633387 ], [ 39.010493638970331, 9.216049024842675 ], [ 39.01867302783802, 9.20895097540722 ], [ 39.022993638945309, 9.20771569182574 ], [ 39.031173027813054, 9.200617641491021 ], [ 39.036731634857119, 9.199028354175255 ], [ 39.038361612898143, 9.187831115713493 ], [ 39.043673027788032, 9.183950975457208 ], [ 39.053431531739875, 9.182530721115938 ], [ 39.054784139076787, 9.168673197210353 ], [ 39.058950806034943, 9.162969123026642 ], [ 39.057525635100035, 9.155126952946546 ], [ 39.050717162866817, 9.153180270553094 ], [ 39.049382527581656, 9.139506361229621 ], [ 39.046450806059909, 9.135493638420712 ], [ 39.045833333341704, 9.133333333766416 ], [ 39.045833333341704, 9.116666666833282 ], [ 39.046759711491518, 9.113426378024997 ], [ 39.053240288208769, 9.111573621725313 ], [ 39.055138481855522, 9.104935031426635 ], [ 39.066025458707998, 9.103350151688176 ], [ 39.066666666333617, 9.070833332991981 ], [ 39.056122843794242, 9.070266045141921 ], [ 39.052210489822301, 9.067233954783262 ], [ 39.042554049929493, 9.06595831952086 ], [ 39.041666666383605, 9.062499999975046 ], [ 39.037500000324826, 9.062499999975046 ], [ 39.034184095619594, 9.061649237722179 ], [ 39.03333333336667, 9.058333333016947 ], [ 39.033686659012176, 9.055908881289895 ], [ 39.037853325970275, 9.05171305381441 ], [ 39.03714667467932, 9.043408881314861 ], [ 39.033686659012176, 9.039924451752086 ], [ 39.032975599244537, 9.035045030703657 ], [ 39.022549438605779, 9.024646674404551 ], [ 39.018408881664584, 9.025353325695448 ], [ 39.014213053289836, 9.029519992653604 ], [ 39.010044013020831, 9.028807915752736 ], [ 39.000353326045229, 9.019091118760173 ], [ 39.000000000399723, 9.016666667033121 ], [ 38.999357096652716, 9.010365125550152 ], [ 38.992309570230532, 9.002134873725481 ], [ 38.991023762736518, 8.997865125575117 ], [ 38.988142903272433, 8.993801540708603 ], [ 38.986857096677738, 8.989531792558239 ], [ 38.983976237213653, 8.985468207691667 ], [ 38.982690429719582, 8.981198459541304 ], [ 38.979809570255497, 8.977134873775469 ], [ 38.978152465963603, 8.971631198221246 ], [ 38.966023762786449, 8.969782850398303 ], [ 38.96730957028052, 8.960365125650071 ], [ 38.971476237238619, 8.954488457176581 ], [ 38.969943576634819, 8.946592542711699 ], [ 38.953523762811471, 8.944917806311764 ], [ 38.954809570305486, 8.927031792683124 ], [ 38.970855035031889, 8.909752739597309 ], [ 38.960468207142071, 8.900642904046833 ], [ 38.958333333516578, 8.900000000299826 ], [ 38.95744594997069, 8.90345831984564 ], [ 38.947789510077882, 8.904733954208666 ], [ 38.943877157005261, 8.907766045466701 ], [ 38.940920003555391, 8.908900621166765 ], [ 38.935543823089006, 8.904733954208666 ], [ 38.928420003580356, 8.903599378508545 ], [ 38.923043823113971, 8.907766045466701 ], [ 38.901956177135901, 8.908900621166765 ], [ 38.89804382316396, 8.9119327124248 ], [ 38.880072360451152, 8.913137817456345 ], [ 38.879166666708329, 8.91666666633364 ], [ 38.87499999975023, 8.91666666633364 ], [ 38.874149237497363, 8.913350762527728 ], [ 38.866099378883291, 8.911285061156718 ], [ 38.867233954583412, 8.906122843794265 ], [ 38.871400621541511, 8.90074666332788 ], [ 38.87026604584139, 8.885289509903032 ], [ 38.867233954583412, 8.881377156830354 ], [ 38.866099378883291, 8.876956176886097 ], [ 38.862968614010356, 8.872916666870708 ], [ 38.867233954583412, 8.867413330360932 ], [ 38.865481906165087, 8.862846544232696 ], [ 38.856377156280814, 8.854733954308585 ], [ 38.850396050437439, 8.853198920393936 ], [ 38.846400621591442, 8.848043822964087 ], [ 38.845266045891378, 8.84362284301983 ], [ 38.842233954633343, 8.839710489947208 ], [ 38.841099378933222, 8.826956176986016 ], [ 38.838067287675244, 8.823043823014075 ], [ 38.836932711975123, 8.818622843069818 ], [ 38.829733954658309, 8.81054382303904 ], [ 38.828599378958245, 8.801956177036004 ], [ 38.82556728770021, 8.798043823064006 ], [ 38.824999999850149, 8.779166666608432 ], [ 38.814242214206899, 8.778813340962984 ], [ 38.810757785543444, 8.775353325295782 ], [ 38.804166666858237, 8.774999999650333 ], [ 38.797575548173086, 8.775353325295782 ], [ 38.773257785618341, 8.799646673954896 ] ] ] ] } }
]
}
