{
"type": "FeatureCollection",
"name": "juba_sfincsmodel_01",
"crs": { "type": "name", "properties": { "name": "urn:ogc:def:crs:OGC:1.3:CRS84" } },
"features": [
{ "type": "Feature", "properties": { "fid": 1, "HYBAS_ID": 1121017880, "NEXT_DOWN": 1121015790, "NEXT_SINK": 1120034260, "MAIN_BAS": 1120034260, "DIST_SINK": 4899.3, "DIST_MAIN": 4899.3, "SUB_AREA": 79.0, "UP_AREA": 2086.6, "PFAF_ID": 172915801100, "SIDE": "M", "LAKE": 0, "ENDO": 0, "COAST": 0, "ORDER": 2, "SORT": 143335 }, "geometry": { "type": "MultiPolygon", "coordinates": [ [ [ [ 31.590872531467042, 4.728372531467035 ], [ 31.581173027886312, 4.729784138997417 ], [ 31.577160305447077, 4.732715861002625 ], [ 31.568673027886312, 4.733950805664083 ], [ 31.564660305447077, 4.736882527669292 ], [ 31.556173027886313, 4.73811747233075 ], [ 31.552160305447075, 4.741049194335959 ], [ 31.55, 4.741666666666688 ], [ 31.549028184678846, 4.738268364800368 ], [ 31.537830946180584, 4.736638387044292 ], [ 31.533950805664091, 4.731326972113736 ], [ 31.532539198133708, 4.721627468533008 ], [ 31.522839694552978, 4.720215861002625 ], [ 31.51875, 4.717228190104187 ], [ 31.513712565104193, 4.72090793185766 ], [ 31.5125, 4.716666666666688 ], [ 31.510289510091173, 4.716099378797765 ], [ 31.506377156575546, 4.713067287868945 ], [ 31.493622843424507, 4.711932712131097 ], [ 31.489583333333361, 4.708801947699674 ], [ 31.485416666666694, 4.712031385633701 ], [ 31.481377156575547, 4.708900621202278 ], [ 31.463405693901937, 4.707695515950542 ], [ 31.461612616644992, 4.700708346896722 ], [ 31.45195617675784, 4.699432712131097 ], [ 31.447916666666693, 4.696301947699673 ], [ 31.443877156575546, 4.699432712131097 ], [ 31.43945617675784, 4.700567287868944 ], [ 31.431377156575547, 4.707766045464431 ], [ 31.420833333333359, 4.708333333333354 ], [ 31.420833333333359, 4.7125 ], [ 31.421400621202284, 4.727210489908876 ], [ 31.424432712131104, 4.731122843424501 ], [ 31.425850762261312, 4.736649237738737 ], [ 31.432482571072075, 4.738350762261305 ], [ 31.433333333333358, 4.741666666666688 ], [ 31.429774305555583, 4.74258015950523 ], [ 31.429166666666692, 4.758333333333354 ], [ 31.42951999240454, 4.773257785373286 ], [ 31.432980007595511, 4.776742214626758 ], [ 31.433686659071206, 4.785757785373285 ], [ 31.437146674262181, 4.789242214626758 ], [ 31.437853325737873, 4.794091118706619 ], [ 31.441313340928847, 4.797575547960092 ], [ 31.442019992404539, 4.802424452039952 ], [ 31.445480007595513, 4.805908881293425 ], [ 31.446186659071206, 4.810757785373285 ], [ 31.462146674262179, 4.826742214626758 ], [ 31.462853325737875, 4.831591118706619 ], [ 31.466313340928846, 4.835075547960091 ], [ 31.466666666666693, 4.8375 ], [ 31.46335076226131, 4.838350762261307 ], [ 31.461932712131102, 4.843877156575543 ], [ 31.458900621202282, 4.847789510091168 ], [ 31.458239375318264, 4.875282450058397 ], [ 31.49109937879777, 4.876956176757835 ], [ 31.492634412977459, 4.882937282986133 ], [ 31.497789510091174, 4.886932712131099 ], [ 31.502210489908883, 4.888067287868946 ], [ 31.506122843424507, 4.891099378797765 ], [ 31.510543823242216, 4.892233954535612 ], [ 31.518622843424506, 4.899432712131099 ], [ 31.544921535915826, 4.900614081488738 ], [ 31.546400621202284, 4.906377156575543 ], [ 31.549432712131104, 4.910289510091168 ], [ 31.551137288411486, 4.916931152343773 ], [ 31.55625, 4.912968614366342 ], [ 31.560289510091174, 4.916099378797766 ], [ 31.566666666666695, 4.916666666666689 ], [ 31.567517428927978, 4.919982571072071 ], [ 31.570833333333361, 4.920833333333356 ], [ 31.570833333333361, 4.925 ], [ 31.574149237738744, 4.925850762261307 ], [ 31.575, 4.929166666666689 ], [ 31.575850762261311, 4.932482571072072 ], [ 31.581377156575549, 4.93390062120228 ], [ 31.585289510091172, 4.9369327121311 ], [ 31.589710489908882, 4.938067287868947 ], [ 31.595086669921901, 4.942233954535613 ], [ 31.598043823242215, 4.941099378797766 ], [ 31.601956176757842, 4.938067287868947 ], [ 31.61471048990888, 4.9369327121311 ], [ 31.627071804470514, 4.925459798177107 ], [ 31.632586669921903, 4.929733954535613 ], [ 31.639710489908882, 4.928599378797766 ], [ 31.643622843424506, 4.925567287868946 ], [ 31.645833333333361, 4.925 ], [ 31.649149237738744, 4.924149237738738 ], [ 31.65, 4.920833333333356 ], [ 31.649646674262179, 4.914242214626759 ], [ 31.646186659071208, 4.910757785373287 ], [ 31.645480007595513, 4.905908881293426 ], [ 31.642019992404542, 4.902424452039953 ], [ 31.641666666666694, 4.9 ], [ 31.642517428927981, 4.89668409559464 ], [ 31.645833333333361, 4.895833333333355 ], [ 31.645833333333361, 4.891666666666689 ], [ 31.65, 4.891666666666689 ], [ 31.65, 4.8875 ], [ 31.650661214192738, 4.880066257052974 ], [ 31.656377156575548, 4.878599378797766 ], [ 31.660289510091175, 4.875567287868946 ], [ 31.664710489908881, 4.874432712131099 ], [ 31.668622843424508, 4.871400621202279 ], [ 31.679166666666696, 4.870833333333356 ], [ 31.682672119140655, 4.869933742947071 ], [ 31.683900621202284, 4.856122843424501 ], [ 31.688067287868954, 4.85074666341148 ], [ 31.686932712131103, 4.831122843424501 ], [ 31.682766045464437, 4.82574666341148 ], [ 31.683900621202284, 4.818622843424501 ], [ 31.686932712131103, 4.814710489908876 ], [ 31.688067287868954, 4.797789510091167 ], [ 31.704733954535619, 4.780178493923632 ], [ 31.703599378797772, 4.776956176757833 ], [ 31.700567287868953, 4.773043823242209 ], [ 31.699432712131106, 4.768622843424501 ], [ 31.695891994900201, 4.764054022894987 ], [ 31.718622843424509, 4.742233954535612 ], [ 31.723043823242215, 4.741099378797765 ], [ 31.726956176757842, 4.738067287868945 ], [ 31.731377156575551, 4.736932712131098 ], [ 31.739456176757841, 4.729733954535611 ], [ 31.74387715657555, 4.728599378797764 ], [ 31.747789510091174, 4.725567287868945 ], [ 31.761540052625897, 4.724344211154535 ], [ 31.766099378797772, 4.718877156575542 ], [ 31.767233954535619, 4.701956176757833 ], [ 31.770266045464439, 4.698043823242209 ], [ 31.770833333333364, 4.695833333333354 ], [ 31.770480007595516, 4.689242214626757 ], [ 31.767019992404542, 4.685757785373285 ], [ 31.766666666666694, 4.683333333333354 ], [ 31.7475755479601, 4.683686659071201 ], [ 31.739924452039958, 4.69131334092884 ], [ 31.735075547960097, 4.692019992404535 ], [ 31.731591118706625, 4.695480007595506 ], [ 31.719120279947944, 4.696186659071202 ], [ 31.714924452039959, 4.692019992404535 ], [ 31.704166666666694, 4.691666666666688 ], [ 31.703813340928846, 4.694091118706618 ], [ 31.694121636284752, 4.703808932834223 ], [ 31.689242214626766, 4.704519992404535 ], [ 31.685757785373291, 4.707980007595507 ], [ 31.676742214626763, 4.708686659071201 ], [ 31.669091118706625, 4.71631334092884 ], [ 31.666666666666696, 4.716666666666688 ], [ 31.665451727973117, 4.711932712131097 ], [ 31.651956176757842, 4.713067287868945 ], [ 31.648043823242215, 4.716099378797765 ], [ 31.63945617675784, 4.717233954535612 ], [ 31.635416666666693, 4.720364718967035 ], [ 31.631377156575549, 4.717233954535612 ], [ 31.618622843424507, 4.716099378797765 ], [ 31.614583333333361, 4.712968614366341 ], [ 31.609079996744818, 4.717233954535612 ], [ 31.606122843424508, 4.716099378797765 ], [ 31.602210489908881, 4.713067287868945 ], [ 31.59583333333336, 4.7125 ], [ 31.59583333333336, 4.716666666666688 ], [ 31.592435031467041, 4.717638481987868 ], [ 31.590872531467042, 4.728372531467035 ] ] ] ] } }
]
}
