{
"type": "FeatureCollection",
"name": "id_1",
"crs": { "type": "name", "properties": { "name": "urn:ogc:def:crs:OGC:1.3:CRS84" } },
"xy_coordinate_resolution": 1e-15,
"features": [
{ "type": "Feature", "properties": { "id": 1 }, "geometry": { "type": "MultiPolygon", "coordinates": [ [ [ [ 32.504166666858225, 0.23333333356652 ], [ 32.502006530377116, 0.233950805385405 ], [ 32.488321770733194, 0.246436903640245 ], [ 32.48688235813438, 0.256326972112106 ], [ 32.483219401454278, 0.261341349024065 ], [ 32.475768195445937, 0.263471815072251 ], [ 32.474051412143012, 0.275267537067236 ], [ 32.468826802514968, 0.271450805310451 ], [ 32.462030876723645, 0.270215860773419 ], [ 32.455028110458954, 0.275330946466056 ], [ 32.453372531417244, 0.2867058648838 ], [ 32.443673197460157, 0.288117472243584 ], [ 32.430254957300463, 0.300360446877164 ], [ 32.428549025217364, 0.306326972012187 ], [ 32.425617641840745, 0.310339694821096 ], [ 32.425000000050034, 0.320833333391647 ], [ 32.425000000050034, 0.325000000349803 ], [ 32.431377156530573, 0.325567288199863 ], [ 32.43542548260001, 0.328704833960956 ], [ 32.443741183508848, 0.321295165839274 ], [ 32.447789510477605, 0.324432712499743 ], [ 32.468877156455676, 0.325567288199863 ], [ 32.477074517375115, 0.332871500919055 ], [ 32.481250000387263, 0.329635280643743 ], [ 32.485289510402652, 0.332766045516621 ], [ 32.489710490346909, 0.333900621216742 ], [ 32.49362284341953, 0.336932712474777 ], [ 32.499401516366959, 0.338415527254824 ], [ 32.499999999900126, 0.35833333331675 ], [ 32.502210490321943, 0.358900621166754 ], [ 32.507586669888951, 0.36306728812491 ], [ 32.510543823338821, 0.361932712424789 ], [ 32.514592149408202, 0.35879516576432 ], [ 32.524062771379874, 0.367233954183689 ], [ 32.527210490271955, 0.366099378483568 ], [ 32.535917155252548, 0.358341132237513 ], [ 32.549432711950146, 0.372789509828067 ], [ 32.550899590743597, 0.378505452364777 ], [ 32.564710490197001, 0.379733954158723 ], [ 32.568622843269679, 0.382766045416702 ], [ 32.570833333691439, 0.383333333266762 ], [ 32.574999999750219, 0.383333333266762 ], [ 32.575993516787435, 0.379858737790585 ], [ 32.595026312614266, 0.378461032150938 ], [ 32.596601528238011, 0.367638481830511 ], [ 32.602160136181396, 0.366049194514744 ], [ 32.610339864093532, 0.358950806034898 ], [ 32.612499999675322, 0.35833333331675 ], [ 32.611649068349891, 0.355017428611461 ], [ 32.608333333616486, 0.354166666358594 ], [ 32.607445950070598, 0.35070834681278 ], [ 32.596752760031904, 0.349295722319766 ], [ 32.592233954533413, 0.343877156805377 ], [ 32.590529547700498, 0.337235514207634 ], [ 32.584079996694527, 0.34223395423362 ], [ 32.581122843244657, 0.341099378533556 ], [ 32.56887715625578, 0.329733954258643 ], [ 32.563350932, 0.328315904155716 ], [ 32.561932711925181, 0.322789509927986 ], [ 32.557766045866401, 0.317413330360978 ], [ 32.558900621566465, 0.310289509952952 ], [ 32.56609937888328, 0.302210489922231 ], [ 32.567233954583401, 0.297789509977974 ], [ 32.570266045841379, 0.293877156905296 ], [ 32.570833333691439, 0.291666666483536 ], [ 32.567593044883154, 0.290740288333666 ], [ 32.565805901321369, 0.284489271662608 ], [ 32.562030877423126, 0.282715860748397 ], [ 32.556326802340095, 0.286882527706553 ], [ 32.549530877448092, 0.288117472243584 ], [ 32.543826802365061, 0.283950805285485 ], [ 32.533065965322066, 0.282384914732063 ], [ 32.536882358034461, 0.277160305104019 ], [ 32.538117641615941, 0.272839694896049 ], [ 32.549382358009439, 0.260493639070262 ], [ 32.549999999800207, 0.237499999625356 ], [ 32.539456176361512, 0.23806728747536 ], [ 32.534037610847122, 0.242586262945736 ], [ 32.532766045017013, 0.252210490022151 ], [ 32.529733954658354, 0.256122843094772 ], [ 32.528315734583543, 0.261649237322501 ], [ 32.522789510327698, 0.263067287425429 ], [ 32.518877156355757, 0.266099378683407 ], [ 32.515707058733824, 0.267233954383528 ], [ 32.504756673381848, 0.257301499964285 ], [ 32.504166666858225, 0.23333333356652 ] ] ] ] } }
]
}
