{
"type": "FeatureCollection",
"name": "id_2",
"crs": { "type": "name", "properties": { "name": "urn:ogc:def:crs:OGC:1.3:CRS84" } },
"xy_coordinate_resolution": 1e-15,
"features": [
{ "type": "Feature", "properties": { "id": 2 }, "geometry": { "type": "MultiPolygon", "coordinates": [ [ [ [ 32.612499999675322, 0.35833333331675 ], [ 32.610339864093532, 0.358950806034898 ], [ 32.602160136181396, 0.366049194514744 ], [ 32.596601528238011, 0.367638481830511 ], [ 32.595026312614266, 0.378461032150938 ], [ 32.575993516787435, 0.379858737790585 ], [ 32.574999999750219, 0.383333333266762 ], [ 32.57464667410477, 0.394091118910069 ], [ 32.571186659336888, 0.397575547573524 ], [ 32.570833333691439, 0.416666666233709 ], [ 32.585581630687784, 0.417196316556783 ], [ 32.589583333204303, 0.420437282554587 ], [ 32.594236246505602, 0.416668701399487 ], [ 32.59947052024836, 0.422751871301841 ], [ 32.600598314160948, 0.436415947438093 ], [ 32.606085035695912, 0.441137016759967 ], [ 32.611553785179069, 0.442425198464207 ], [ 32.616274854501, 0.447911580055404 ], [ 32.611970520223394, 0.453226047244357 ], [ 32.613450791720709, 0.457683647582314 ], [ 32.62290717202842, 0.466278415316651 ], [ 32.628225877722116, 0.4619703506512 ], [ 32.643914964504063, 0.463029649498765 ], [ 32.647751702579058, 0.466137016709979 ], [ 32.656414964479097, 0.467196316456864 ], [ 32.661559210689063, 0.4713629825157 ], [ 32.666058349813056, 0.469868638426988 ], [ 32.666666666533501, 0.462500000075011 ], [ 32.668877156955261, 0.46193271222495 ], [ 32.67278951002794, 0.458900620966915 ], [ 32.677210489972197, 0.457766045266851 ], [ 32.681122843044818, 0.454733954908136 ], [ 32.686791483939885, 0.453279283512188 ], [ 32.688067288274794, 0.44362284361938 ], [ 32.691099378633453, 0.439710489647439 ], [ 32.692517598708264, 0.43418409541971 ], [ 32.699604118835055, 0.432365587102197 ], [ 32.703697883150824, 0.427083333629014 ], [ 32.700567288249829, 0.423043823613625 ], [ 32.699432712549708, 0.414456176711212 ], [ 32.696302117648656, 0.41041666669588 ], [ 32.699432712549708, 0.406377156680492 ], [ 32.700567288249829, 0.397789509778079 ], [ 32.703599378608487, 0.393877156705457 ], [ 32.704733954308608, 0.3894561767612 ], [ 32.711932712524742, 0.381377156730423 ], [ 32.713067288224806, 0.368622843769288 ], [ 32.720266045541621, 0.36054382283919 ], [ 32.720833333391681, 0.354166666358594 ], [ 32.712500000374746, 0.354166666358594 ], [ 32.704938083325942, 0.354938083225989 ], [ 32.704166666458548, 0.362500000274849 ], [ 32.704166666458548, 0.366666666333629 ], [ 32.701956176936051, 0.367233954183689 ], [ 32.697916666920719, 0.370364719056568 ], [ 32.693741183908571, 0.367128499680575 ], [ 32.685425482999676, 0.374538166902937 ], [ 32.681377156930296, 0.371400621141788 ], [ 32.676956176986039, 0.370266045441667 ], [ 32.673043823014098, 0.367233954183689 ], [ 32.667517598758252, 0.365815904080762 ], [ 32.666099378683441, 0.360289509853033 ], [ 32.662322658663811, 0.355416530648426 ], [ 32.657586669589193, 0.353599378508534 ], [ 32.652210490022128, 0.35776604546669 ], [ 32.647789510077871, 0.358900621166754 ], [ 32.64387715700525, 0.361932712424789 ], [ 32.640729438113112, 0.36306728812491 ], [ 32.63032989470895, 0.353800795170628 ], [ 32.628286912910767, 0.361761135268239 ], [ 32.620086669664147, 0.36306728812491 ], [ 32.614710490097082, 0.358900621166754 ], [ 32.612499999675322, 0.35833333331675 ] ] ] ] } }
]
}
