{
"type": "FeatureCollection",
"name": "kigali_sfincsmodel_01",
"crs": { "type": "name", "properties": { "name": "urn:ogc:def:crs:OGC:1.3:CRS84" } },
"features": [
{ "type": "Feature", "properties": { }, "geometry": { "type": "Polygon", "coordinates": [ [ [ 30.004166666458559, -1.954166666558365 ], [ 30.000000000399723, -1.954166666558365 ], [ 30.000607469059503, -1.938413493188136 ], [ 30.006377156880319, -1.936932711775171 ], [ 30.011250305157489, -1.933155992654918 ], [ 30.038309563735424, -1.932645331516767 ], [ 30.050000000299804, -1.933333333566452 ], [ 30.053315735033209, -1.934184095819319 ], [ 30.054733954208643, -1.939710490047048 ], [ 30.063067288124898, -1.949062771129945 ], [ 30.061932712424777, -1.960543823038961 ], [ 30.054733954208643, -1.968622843069681 ], [ 30.053315735033209, -1.974149237297411 ], [ 30.047789509878044, -1.975567288299658 ], [ 30.043749999862655, -1.978698052273273 ], [ 30.039710489847266, -1.975567288299658 ], [ 30.037500000324826, -1.974999999550278 ], [ 30.036764017645339, -1.963257852867571 ], [ 30.018711005308717, -1.961844550285718 ], [ 30.014622328457733, -1.958988782806045 ], [ 30.005202399471216, -1.957520717806858 ], [ 30.004166666458559, -1.954166666558365 ] ] ] } },
{ "type": "Feature", "properties": { }, "geometry": { "type": "Polygon", "coordinates": [ [ [ 30.108333333216819, -1.958333333516464 ], [ 30.107766045366759, -1.956122843094704 ], [ 30.104733954108724, -1.952210490022026 ], [ 30.10359937840866, -1.93945617706089 ], [ 30.100567288049945, -1.935543823088892 ], [ 30.099291483715035, -1.925887383196141 ], [ 30.092517598508437, -1.92414923739733 ], [ 30.091099378433626, -1.918622843169601 ], [ 30.07962646448982, -1.906261528546679 ], [ 30.082864549059764, -1.902083333179235 ], [ 30.079733954158712, -1.898043823163846 ], [ 30.079166666308652, -1.887499999725151 ], [ 30.075000000249872, -1.887499999725151 ], [ 30.074646674604423, -1.88090888104 ], [ 30.070847914000069, -1.877083333229223 ], [ 30.074646674604423, -1.873257785418389 ], [ 30.075353325895321, -1.864952256741219 ], [ 30.069123500848946, -1.858691405983564 ], [ 30.064242214606566, -1.857980007171534 ], [ 30.060757785043791, -1.854519992403652 ], [ 30.052451070160828, -1.853813341112755 ], [ 30.043750338907046, -1.862486436200015 ], [ 30.03785807259203, -1.856623670346039 ], [ 30.03714667467932, -1.851742215031152 ], [ 30.02951999205402, -1.844091118510278 ], [ 30.028813340763122, -1.835075548098018 ], [ 30.025353325995241, -1.831591118535243 ], [ 30.024646674704343, -1.814242214206786 ], [ 30.021186659037141, -1.810757785543331 ], [ 30.020833333391693, -1.795833332941925 ], [ 30.03672112358106, -1.796531168178831 ], [ 30.038264804477194, -1.811664157374935 ], [ 30.047968376939082, -1.813142903622065 ], [ 30.056251356015309, -1.820235867391318 ], [ 30.070119391197011, -1.807690430069272 ], [ 30.078791639122926, -1.809279717384982 ], [ 30.086857265550407, -1.818698459266443 ], [ 30.087500000224907, -1.820833332891937 ], [ 30.091666666283686, -1.820833332891937 ], [ 30.092634413247652, -1.824603949212815 ], [ 30.097789509778124, -1.828599378958131 ], [ 30.102210489722381, -1.829733954658252 ], [ 30.110289509753102, -1.83693271197501 ], [ 30.11602901902404, -1.838405693567836 ], [ 30.117304314342675, -1.857427639074217 ], [ 30.124149067925202, -1.859184095969226 ], [ 30.125567288000013, -1.864710490196899 ], [ 30.128599378358672, -1.868622843269577 ], [ 30.130017598433483, -1.874149237497249 ], [ 30.135543823588648, -1.875567287600177 ], [ 30.13945617666127, -1.878599378858212 ], [ 30.143877156605527, -1.879733954558333 ], [ 30.147789509678205, -1.882766045816311 ], [ 30.1583333331169, -1.883333333666371 ], [ 30.158950974907611, -1.88966013620626 ], [ 30.163117641865711, -1.895364210389971 ], [ 30.161882358284231, -1.897993469223195 ], [ 30.158950974907611, -1.902006531076495 ], [ 30.157629394181242, -1.920002407684933 ], [ 30.147993469622975, -1.928549024817585 ], [ 30.134319559400183, -1.92988383007463 ], [ 30.13271569137612, -1.935493469148241 ], [ 30.129784308898763, -1.939506531001541 ], [ 30.128372531567152, -1.949205864958628 ], [ 30.117638312658073, -1.950768195096089 ], [ 30.116666666233698, -1.954166666558365 ], [ 30.114242214506646, -1.954519992203814 ], [ 30.110757784943871, -1.957980007871015 ], [ 30.108333333216819, -1.958333333516464 ] ] ] } },
{ "type": "Feature", "properties": { }, "geometry": { "type": "Polygon", "coordinates": [ [ [ 30.175000000050034, -1.870833333691337 ], [ 30.178315734783382, -1.871684265016768 ], [ 30.180017598333563, -1.878315734483522 ], [ 30.187104119359674, -1.880134412772861 ], [ 30.191099379133107, -1.885289510202711 ], [ 30.192233954833227, -1.889710490146967 ], [ 30.199432712149985, -1.897789510177688 ], [ 30.2, -1.899999999700185 ], [ 30.200642733775169, -1.922968377188795 ], [ 30.203523932283701, -1.927031623010919 ], [ 30.204809400733325, -1.93130171020573 ], [ 30.207690599241801, -1.935364956027854 ], [ 30.209053208838554, -1.95755666101104 ], [ 30.225642733725238, -1.959248860446507 ], [ 30.224357266174934, -1.98546837706391 ], [ 30.2118572661999, -1.999286058304904 ], [ 30.213142733750203, -2.006301710055823 ], [ 30.216060553551756, -2.010416666895594 ], [ 30.213142733750203, -2.014531622836103 ], [ 30.21249999997508, -2.020833333391579 ], [ 30.201742214331773, -2.02048000774613 ], [ 30.198257785668318, -2.017019992078929 ], [ 30.189953783140652, -2.016313340787974 ], [ 30.185757785693283, -2.02048000774613 ], [ 30.18090888133986, -2.021186659037028 ], [ 30.177424451777085, -2.024646674704229 ], [ 30.162500000074999, -2.025000000349678 ], [ 30.1583333331169, -2.025000000349678 ], [ 30.1583333331169, -2.020833333391579 ], [ 30.162574598838717, -2.019620768483605 ], [ 30.158950974907611, -2.01466013595649 ], [ 30.157715691326132, -2.006173197834755 ], [ 30.146388583566306, -1.993758476972062 ], [ 30.149382358309254, -1.989660136006421 ], [ 30.150617641890733, -1.977006530926587 ], [ 30.153607686245778, -1.972913106554586 ], [ 30.148638915753395, -1.966700575471123 ], [ 30.143749999662816, -1.970271810295742 ], [ 30.139660135706777, -1.96728430832411 ], [ 30.121640353319719, -1.965961032375674 ], [ 30.120065137695974, -1.955138312083363 ], [ 30.116666666233698, -1.954166666558365 ], [ 30.117638312658073, -1.950768195096089 ], [ 30.128372531567152, -1.949205864958628 ], [ 30.129784308898763, -1.939506531001541 ], [ 30.13271569137612, -1.935493469148241 ], [ 30.134319559400183, -1.92988383007463 ], [ 30.147993469622975, -1.928549024817585 ], [ 30.157629394181242, -1.920002407684933 ], [ 30.158950974907611, -1.902006531076495 ], [ 30.161882358284231, -1.897993469223195 ], [ 30.163117641865711, -1.895364210389971 ], [ 30.158950974907611, -1.88966013620626 ], [ 30.1583333331169, -1.883333333666371 ], [ 30.158930291399884, -1.876101345500672 ], [ 30.169733174446492, -1.866137186381991 ], [ 30.174228753154466, -1.867558966872764 ], [ 30.175000000050034, -1.870833333691337 ] ] ] } },
{ "type": "Feature", "properties": { }, "geometry": { "type": "Polygon", "coordinates": [ [ [ 30.095833333241785, -2.000000000399666 ], [ 30.085075547598478, -1.999646673854841 ], [ 30.081591118935023, -1.996186659087016 ], [ 30.073287116407357, -1.995480007796061 ], [ 30.069091118960046, -1.999646673854841 ], [ 30.066666666333617, -2.000000000399666 ], [ 30.060327318251211, -1.999394904151472 ], [ 30.056339348382267, -1.996438428790384 ], [ 30.047827318276177, -1.995228237193317 ], [ 30.043839348407232, -1.992271762731605 ], [ 30.034153238980821, -1.990894741499062 ], [ 30.032728238017796, -1.982792663750388 ], [ 30.036894904076632, -1.977172681573961 ], [ 30.037500000324826, -1.974999999550278 ], [ 30.039710489847266, -1.975567288299658 ], [ 30.043749999862655, -1.978698052273273 ], [ 30.047789509878044, -1.975567288299658 ], [ 30.053315735033209, -1.974149237297411 ], [ 30.054733954208643, -1.968622843069681 ], [ 30.061932712424777, -1.960543823038961 ], [ 30.063067288124898, -1.949062771129945 ], [ 30.054733954208643, -1.939710490047048 ], [ 30.053315735033209, -1.934184095819319 ], [ 30.050000000299804, -1.933333333566452 ], [ 30.038309563735424, -1.932645331516767 ], [ 30.013117642165525, -1.877160305303789 ], [ 30.011882357684726, -1.864506361179565 ], [ 30.00895097520737, -1.860493638370656 ], [ 30.007715691625947, -1.847839694246431 ], [ 30.00478430824927, -1.843826972336842 ], [ 30.004166666458559, -1.791666666883145 ], [ 30.006591119084931, -1.792019992528594 ], [ 30.010075547748386, -1.795480007296476 ], [ 30.020833333391693, -1.795833332941925 ], [ 30.021186659037141, -1.810757785543331 ], [ 30.024646674704343, -1.814242214206786 ], [ 30.025353325995241, -1.831591118535243 ], [ 30.028813340763122, -1.835075548098018 ], [ 30.02951999205402, -1.844091118510278 ], [ 30.03714667467932, -1.851742215031152 ], [ 30.03785807259203, -1.856623670346039 ], [ 30.043750338907046, -1.862486436200015 ], [ 30.052451070160828, -1.853813341112755 ], [ 30.060757785043791, -1.854519992403652 ], [ 30.064242214606566, -1.857980007171534 ], [ 30.069123500848946, -1.858691405983564 ], [ 30.075353325895321, -1.864952256741219 ], [ 30.074646674604423, -1.873257785418389 ], [ 30.070847914000069, -1.877083333229223 ], [ 30.074646674604423, -1.88090888104 ], [ 30.075000000249872, -1.887499999725151 ], [ 30.079166666308652, -1.887499999725151 ], [ 30.079733954158712, -1.898043823163846 ], [ 30.082864549059764, -1.902083333179235 ], [ 30.07962646448982, -1.906261528546679 ], [ 30.091099378433626, -1.918622843169601 ], [ 30.092517598508437, -1.92414923739733 ], [ 30.099291483715035, -1.925887383196141 ], [ 30.100567288049945, -1.935543823088892 ], [ 30.10359937840866, -1.93945617706089 ], [ 30.104733954108724, -1.952210490022026 ], [ 30.107766045366759, -1.956122843094704 ], [ 30.108333333216819, -1.958333333516464 ], [ 30.107766045366759, -1.960543823038961 ], [ 30.10359937840866, -1.965920003505289 ], [ 30.104733954108724, -1.973043823013995 ], [ 30.107864549009776, -1.977083333029327 ], [ 30.104733954108724, -1.981122843044716 ], [ 30.10359937840866, -1.985543822988973 ], [ 30.100567288049945, -1.989456176960971 ], [ 30.099291483715035, -1.999112616853722 ], [ 30.095833333241785, -2.000000000399666 ] ] ] } },
{ "type": "Feature", "properties": { }, "geometry": { "type": "Polygon", "coordinates": [ [ [ 30.000000000399723, -1.954166666558365 ], [ 30.004166666458559, -1.954166666558365 ], [ 30.005202399471216, -1.957520717806858 ], [ 30.014622328457733, -1.958988782806045 ], [ 30.018711005308717, -1.961844550285718 ], [ 30.036764017645339, -1.963257852867571 ], [ 30.037500000324826, -1.974999999550278 ], [ 30.036894904076632, -1.977172681573961 ], [ 30.032728238017796, -1.982792663750388 ], [ 30.034153238980821, -1.990894741499062 ], [ 30.043839348407232, -1.992271762731605 ], [ 30.047827318276177, -1.995228237193317 ], [ 30.056339348382267, -1.996438428790384 ], [ 30.060327318251211, -1.999394904151472 ], [ 30.066666666333617, -2.000000000399666 ], [ 30.066022237336426, -2.023992919737395 ], [ 30.060339863793729, -2.025617642140446 ], [ 30.052160135881593, -2.032715691575845 ], [ 30.047839863818695, -2.033950975157325 ], [ 30.043826802864714, -2.036882358533944 ], [ 30.039506530801816, -2.038117642115424 ], [ 30.024365081820424, -1.99756209196773 ], [ 30.000000000399723, -1.954166666558365 ] ] ] } },
{ "type": "Feature", "properties": { }, "geometry": { "type": "Polygon", "coordinates": [ [ [ 30.099432712349824, -2.043622843819151 ], [ 30.039506530801816, -2.038117642115424 ], [ 30.043826802864714, -2.036882358533944 ], [ 30.047839863818695, -2.033950975157325 ], [ 30.052160135881593, -2.032715691575845 ], [ 30.060339863793729, -2.025617642140446 ], [ 30.066022237336426, -2.023992919737395 ], [ 30.066666666333617, -2.000000000399666 ], [ 30.069091118960046, -1.999646673854841 ], [ 30.073287116407357, -1.995480007796061 ], [ 30.081591118935023, -1.996186659087016 ], [ 30.085075547598478, -1.999646673854841 ], [ 30.095833333241785, -2.000000000399666 ], [ 30.096684265466536, -2.003315735133015 ], [ 30.103770785593326, -2.005134413422411 ], [ 30.10890062106688, -2.011753336447271 ], [ 30.107766045366759, -2.023043822914076 ], [ 30.095266045391725, -2.03651190889741 ], [ 30.096400621091846, -2.039710489847209 ], [ 30.099432712349824, -2.043622843819151 ] ] ] } },
{ "type": "Feature", "properties": { }, "geometry": { "type": "Polygon", "coordinates": [ [ [ 30.1465589736178, -2.034145101015554 ], [ 30.099432712349824, -2.043622843819151 ], [ 30.096400621091846, -2.039710489847209 ], [ 30.095266045391725, -2.03651190889741 ], [ 30.107766045366759, -2.023043822914076 ], [ 30.10890062106688, -2.011753336447271 ], [ 30.103770785593326, -2.005134413422411 ], [ 30.096684265466536, -2.003315735133015 ], [ 30.095833333241785, -2.000000000399666 ], [ 30.099291483715035, -1.999112616853722 ], [ 30.100567288049945, -1.989456176960971 ], [ 30.10359937840866, -1.985543822988973 ], [ 30.104733954108724, -1.981122843044716 ], [ 30.107864549009776, -1.977083333029327 ], [ 30.104733954108724, -1.973043823013995 ], [ 30.10359937840866, -1.965920003505289 ], [ 30.107766045366759, -1.960543823038961 ], [ 30.108333333216819, -1.958333333516464 ], [ 30.110757784943871, -1.957980007871015 ], [ 30.114242214506646, -1.954519992203814 ], [ 30.116666666233698, -1.954166666558365 ], [ 30.120065137695974, -1.955138312083363 ], [ 30.121640353319719, -1.965961032375674 ], [ 30.139660135706777, -1.96728430832411 ], [ 30.143749999662816, -1.970271810295742 ], [ 30.148638915753395, -1.966700575471123 ], [ 30.153607686245778, -1.972913106554586 ], [ 30.150617641890733, -1.977006530926587 ], [ 30.149382358309254, -1.989660136006421 ], [ 30.146388583566306, -1.993758476972062 ], [ 30.157715691326132, -2.006173197834755 ], [ 30.158950974907611, -2.01466013595649 ], [ 30.162574598838717, -2.019620768483605 ], [ 30.1583333331169, -2.020833333391579 ], [ 30.1583333331169, -2.025000000349678 ], [ 30.156173197535111, -2.025617642140446 ], [ 30.1465589736178, -2.034145101015554 ] ] ] } }
]
}
