{
"type": "FeatureCollection",
"name": "kampala_03_include_bnd_H",
"crs": { "type": "name", "properties": { "name": "urn:ogc:def:crs:OGC:1.3:CRS84" } },
"features": [
{ "type": "Feature", "properties": { }, "geometry": { "type": "Polygon", "coordinates": [ [ [ 32.618126353942728, 0.198081164523504 ], [ 32.626008024618443, 0.199986978334435 ], [ 32.629787350311304, 0.207481025862164 ], [ 32.655176666504381, 0.26672276364602 ], [ 32.66783902267192, 0.288784981152221 ], [ 32.666320832008978, 0.290432379531161 ], [ 32.643612575922802, 0.274346018889744 ], [ 32.620775112120626, 0.230092376161346 ], [ 32.618126353942728, 0.198081164523504 ] ] ] } }
]
}
